STARLINK-5772           
1 56024U 23042AQ  23100.41041899  .00006898  00000+0  55988-4 0  9999
2 56024  43.0020  92.9611 0001394 275.1024  84.9685 15.71361762  2656
STARLINK-5766           
1 56025U 23042AR  23100.41094601  .00016233  00000+0  12696-3 0  9991
2 56025  43.0021  92.9663 0001423 267.5408  92.5297 15.71362262  2659
STARLINK-5770           
1 56026U 23042AS  23100.41062795 -.00001507  00000+0 -80558-5 0  9995
2 56026  43.0022  92.9621 0001343 257.0269 103.0448 15.71348344  2656
STARLINK-5777           
1 56027U 23042AT  23100.41084084  .00011689  00000+0  92435-4 0  9997
2 56027  43.0019  92.9651 0001506 255.3705 104.6996 15.71361502  2659
STARLINK-5779           
1 56028U 23042AU  23100.41021036  .00004899  00000+0  40782-4 0  9999
2 56028  43.0025  92.9600 0001572 256.1128 103.9565 15.71357791  2651
STARLINK-5774           
1 56029U 23042AV  23100.41052677  .00008493  00000+0  68143-4 0  9990
2 56029  43.0021  92.9630 0001214 260.8269  99.2462 15.71356592  2653
STARLINK-5781           
1 56030U 23042AW  23100.41010524  .00080576  00000+0  61159-3 0  9998
2 56030  43.0024  92.9597 0001574 264.2851  95.7837 15.71370190  2651
STARLINK-5785           
1 56031U 23042AX  23100.41031608  .00081797  00000+0  62067-3 0  9990
2 56031  43.0022  92.9606 0001256 286.0318  74.0412 15.71372203  2654
STARLINK-5786           
1 56032U 23042AY  23100.40978959 -.00003968  00000+0 -26837-4 0  9991
2 56032  43.0029  92.9574 0001356 259.7714 100.3001 15.71346221  2652
STARLINK-5784           
1 56033U 23042AZ  23100.40989362  .00074387  00000+0  56527-3 0  9991
2 56033  43.0027  92.9579 0001706 261.3239  98.7435 15.71371030  2653
STARLINK-5782           
1 56034U 23042BA  23100.40968456  .00010502  00000+0  83391-4 0  9992
2 56034  43.0027  92.9575 0001169 274.1025  85.9709 15.71365662  2654
STARLINK-5792           
1 56035U 23042BB  23100.40999969  .00047084  00000+0  36041-3 0  9990
2 56035  43.0024  92.9575 0001283 258.9080 101.1643 15.71359442  2657
STARLINK-5790           
1 56036U 23042BC  23100.40947501  .00078722  00000+0  59780-3 0  9994
2 56036  43.0029  92.9550 0001136 270.9006  89.1732 15.71367753  2653
STARLINK-5758           
1 56037U 23042BD  23100.40936945  .00004787  00000+0  39931-4 0  9992
2 56037  43.0027  92.9532 0001441 270.1279  89.9424 15.71356352  2654
STARLINK-5793           
1 56038U 23042BE  23100.40958099  .00070967  00000+0  53993-3 0  9993
2 56038  43.0030  92.9560 0001143 283.2988  76.7752 15.71359800  2650
STARLINK-5795           
1 56039U 23042BF  23100.40926472  .00075884  00000+0  57649-3 0  9999
2 56039  43.0027  92.9535 0001278 259.5306 100.5418 15.71371038  2650
STARLINK-5798           
1 56040U 23042BG  23100.40915911  .00034672  00000+0  26671-3 0  9998
2 56040  43.0033  92.9527 0001226 275.1786  84.8942 15.71358667  2658
STARLINK-5800           
1 56041U 23042BH  23100.40904832  .00044501  00000+0  34037-3 0  9996
2 56041  43.0028  92.9515 0001549 247.5762 112.4941 15.71398330  2653
FALCON 9 DEB            
1 56042U 23042BJ  23100.42085210  .00455492  90215-4  11261-2 0  9999
2 56042  43.0115  91.2571 0026632 108.3193 252.0584 15.94472445  2678
FALCON 9 DEB            
1 56043U 23042BK  23100.41484308  .00481594  10158-3  11317-2 0  9991
2 56043  43.0071  91.2030 0024293 112.1161 248.2298 15.95507515  2676
FALCON 9 DEB            
1 56044U 23042BL  23100.40170379  .00480698  10310-3  10454-2 0  9996
2 56044  43.0036  91.0851 0022385 102.2087 258.1299 15.96987314  2675
FALCON 9 DEB            
1 56045U 23042BM  23100.40224893  .00413119  76782-4  93833-3 0  9991
2 56045  43.0014  91.0847 0021423 105.4198 254.9048 15.96258137  2677
ONEWEB-0537             
1 56046U 23043A   23100.59458135  .00028146  00000+0  70857-3 0  9999
2 56046  87.4216 137.1580 0013278 206.5920 153.4656 15.39695835  2388
ONEWEB-0538             
1 56047U 23043B   23100.59379065  .00028058  00000+0  70438-3 0  9991
2 56047  87.4229 137.1591 0013032 205.5996 154.4615 15.39784511  3281
ONEWEB-0546             
1 56048U 23043C   23100.52695292  .00028386  00000+0  70840-3 0  9999
2 56048  87.4201 137.1778 0012519 202.9770 157.0927 15.39971363  2376
ONEWEB-0547             
1 56049U 23043D   23100.58279891  .00029555  00000+0  71607-3 0  9990
2 56049  87.4206 137.1508 0009106 194.2581 165.8419 15.40907297  3285
ONEWEB-0548             
1 56050U 23043E   23100.59720506  .00027463  00000+0  69741-3 0  9999
2 56050  87.4231 137.1621 0013186 211.9224 148.1234 15.39432440  3285
ONEWEB-0549             
1 56051U 23043F   23100.52020154  .00029591  00000+0  72238-3 0  9994
2 56051  87.4212 137.1781 0010253 194.8084 165.2873 15.40665533  2378
ONEWEB-0550             
1 56052U 23043G   23100.52333772  .00029377  00000+0  72433-3 0  9997
2 56052  87.4208 137.1758 0011561 196.0103 164.0789 15.40349147  2370
ONEWEB-0551             
1 56053U 23043H   23100.66667824 -.00025613  00000+0 -77574-3 0  9993
2 56053  87.4353 137.1565 0010694 224.9152  77.2366 15.34302042  3293
ONEWEB-0552             
1 56054U 23043J   23100.52524160  .00029180  00000+0  72394-3 0  9990
2 56054  87.4221 137.1794 0012137 200.2104 159.8673 15.40153792  2379
ONEWEB-0553             
1 56055U 23043K   23100.52764708  .00028131  00000+0  70364-3 0  9995
2 56055  87.4237 137.1824 0012663 203.9281 156.1387 15.39900610  2370
ONEWEB-0554             
1 56056U 23043L   23100.52604071  .00028620  00000+0  71206-3 0  9991
2 56056  87.4233 137.1810 0012309 201.4966 158.5774 15.40066862  2372
ONEWEB-0555             
1 56057U 23043M   23100.59758029  .00027371  00000+0  69578-3 0  9993
2 56057  87.4215 137.1585 0013230 210.9023 149.1455 15.39401155  3284
ONEWEB-0557             
1 56058U 23043N   23100.52575189  .00028601  00000+0  71097-3 0  9997
2 56058  87.4209 137.1782 0012199 200.8891 159.1868 15.40095110  2371
ONEWEB-0558             
1 56059U 23043P   23100.51704291  .00029915  00000+0  72287-3 0  9996
2 56059  87.4219 137.1769 0008761 195.3350 164.7641 15.40989651  2379
ONEWEB-0559             
1 56060U 23043Q   23100.51969096  .00030041  00000+0  73200-3 0  9992
2 56060  87.4210 137.1756 0010085 194.5361 165.5606 15.40723440  2375
ONEWEB-0566             
1 56061U 23043R   23100.52302759  .00029391  00000+0  72399-3 0  9995
2 56061  87.4212 137.1800 0011415 195.9166 164.1732 15.40379595  2377
ONEWEB-0568             
1 56062U 23043S   23100.53938576  .00019324  00000+0  50315-3 0  9998
2 56062  87.4216 137.1829 0011736 223.8764 136.1559 15.38696303  2376
ONEWEB-0574             
1 56063U 23043T   23100.51614477  .00030174  00000+0  72687-3 0  9990
2 56063  87.4183 137.1667 0008613 197.6400 162.4558 15.41084731  2376
ONEWEB-0575             
1 56064U 23043U   23100.60314852  .00026274  00000+0  68079-3 0  9991
2 56064  87.4229 137.1650 0012134 222.1351 137.8972 15.38832651  3287
ONEWEB-0576             
1 56065U 23043V   23100.53452651  .00026964  00000+0  69011-3 0  9997
2 56065  87.4253 137.1909 0013006 216.3952 143.6420 15.39196925  2373
ONEWEB-0577             
1 56066U 23043W   23100.53579707  .00026995  00000+0  69385-3 0  9998
2 56066  87.4242 137.1892 0012978 218.8336 141.1987 15.39067699  2379
ONEWEB-0578             
1 56067U 23043X   23100.52051033  .00029597  00000+0  72316-3 0  9994
2 56067  87.4208 137.1740 0010415 195.0199 165.0749 15.40637132  2379
ONEWEB-0579             
1 56068U 23043Y   23100.51425830  .00030477  00000+0  72955-3 0  9992
2 56068  87.4217 137.1746 0008033 200.7634 159.3296 15.41279468  2375
ONEWEB-0581             
1 56069U 23043Z   23100.53610614  .00026749  00000+0  68828-3 0  9992
2 56069  87.4226 137.1855 0012954 219.5364 140.4947 15.39034619  2370
ONEWEB-0609             
1 56070U 23043AA  23100.58334491 -.01248333  00000+0 -40817-1 0  9999
2 56070  87.4383 137.1595 0008651 198.3711 150.7188 15.34873361  1309
ONEWEB-0613             
1 56071U 23043AB  23099.23568489  .00078319  00000+0  20251-2 0  9998
2 56071  87.4212 137.6405 0012943 220.1475 139.8825 15.38717554  2173
ONEWEB-0630             
1 56072U 23043AC  23100.66667824 -.00027220  00000+0 -85173-3 0  9994
2 56072  87.4368 137.1431 0012815 215.2129 119.7784 15.33244776  3290
ONEWEB-0632             
1 56073U 23043AD  23100.66667824 -.01371424  00000+0 -44818-1 0  9993
2 56073  87.4371 137.1232 0007846 201.7332 258.0598 15.34692571  3301
ONEWEB-0633             
1 56074U 23043AE  23100.58334491 -.01348922  00000+0 -44319-1 0  9999
2 56074  87.4359 137.1496 0008335 199.6962 152.7171 15.34469735  1307
ONEWEB-0634             
1 56075U 23043AF  23100.58334491 -.00814674  00000+0 -26027-1 0  9997
2 56075  87.4342 137.1519 0008767 194.4351 148.1159 15.34871186  1302
ONEWEB-0635             
1 56076U 23043AG  23100.66667824 -.00027324  00000+0 -85225-3 0  9991
2 56076  87.4411 137.1521 0013016 213.0984 127.9864 15.33344415  3293
ONEWEB-0636             
1 56077U 23043AH  23100.66667824 -.00023842  00000+0 -75584-3 0  9990
2 56077  87.4394 137.1375 0010655 194.1047 215.0615 15.32847602  3306
ONEWEB-0637             
1 56078U 23043AJ  23100.66667824 -.00026346  00000+0 -82897-3 0  9998
2 56078  87.4366 137.1536 0010817 227.5131  59.7661 15.33090569  3295
ONEWEB-0647             
1 56079U 23043AK  23100.58334491  .00035401  00000+0  10888-2 0  9991
2 56079  87.4379 137.1652 0011591 196.1408 101.6732 15.33461670  1308
ONEWEB-0651             
1 56080U 23043AL  23100.58334491  .00035916  00000+0  10758-2 0  9990
2 56080  87.4353 137.1665 0012706 206.7700  67.9996 15.34284733  1308
ONEWEB-0718             
1 56081U 23043AM  23100.58334491  .00034157  00000+0  10689-2 0  9990
2 56081  87.4384 137.1607 0010907 195.1070 110.2667 15.32920755  1307
GSLV R/B                
1 56082U 23043AN  23100.54581298  .00022700  00000+0  60086-3 0  9994
2 56082  87.4163 137.1835 0022880 332.9237  27.0821 15.37982350  2374
